{
  "type": "FeatureCollection",
  "features": [
    {
      "type": "Feature",
      "properties": {
        "norad_id": 39773,
        "name": "EUTELSAT 3B",
        "group": "eutelsat",
        "lat": 0.07666918105869042,
        "lon": 43.77028164264125,
        "alt_km": 35806.427492143106,
        "timestamp": "2025-12-08T21:31:04.346570+00:00",
        "meta_object_name": "EUTELSAT 3B",
        "meta_object_id": "2014-030A",
        "meta_epoch": "2025-12-08T13:37:07.160736",
        "meta_mean_motion": 1.00271162,
        "meta_eccentricity": 0.00047949,
        "meta_inclination": 0.0638,
        "meta_ra_of_asc_node": 339.4951,
        "meta_arg_of_pericenter": 248.3736,
        "meta_mean_anomaly": 57.0898,
        "meta_ephemeris_type": 0,
        "meta_classification_type": "U",
        "meta_norad_cat_id": 39773,
        "meta_element_set_no": 999,
        "meta_rev_at_epoch": 4215,
        "meta_bstar": 0,
        "meta_mean_motion_dot": 2.2e-07,
        "meta_mean_motion_ddot": 0,
        "tle_line1": "1 39773U 14030A   25342.56744399  .00000022  00000+0  00000+0 0  9992",
        "tle_line2": "2 39773   0.0638 339.4951 0004794 248.3736  57.0898  1.00271162 42158"
      },
      "geometry": {
        "type": "Point",
        "coordinates": [
          43.77028164264125,
          0.07666918105869042
        ]
      }
    },
    {
      "type": "Feature",
      "properties": {
        "norad_id": 40425,
        "name": "EUTELSAT 115 WEST B",
        "group": "eutelsat",
        "lat": 0.01720543038665171,
        "lon": -74.2435270112364,
        "alt_km": 35790.613147720214,
        "timestamp": "2025-12-08T21:31:04.346593+00:00",
        "meta_object_name": "EUTELSAT 115 WEST B",
        "meta_object_id": "2015-010B",
        "meta_epoch": "2025-12-08T12:13:02.250912",
        "meta_mean_motion": 1.00263131,
        "meta_eccentricity": 5.141e-05,
        "meta_inclination": 0.001,
        "meta_ra_of_asc_node": 191.0559,
        "meta_arg_of_pericenter": 261.5218,
        "meta_mean_anomaly": 53.3056,
        "meta_ephemeris_type": 0,
        "meta_classification_type": "U",
        "meta_norad_cat_id": 40425,
        "meta_element_set_no": 999,
        "meta_rev_at_epoch": 3948,
        "meta_bstar": 0,
        "meta_mean_motion_dot": -2.2e-07,
        "meta_mean_motion_ddot": 0,
        "tle_line1": "1 40425U 15010B   25342.50905383 -.00000022  00000+0  00000+0 0  9994",
        "tle_line2": "2 40425   0.0010 191.0559 0000514 261.5218  53.3056  1.00263131 39486"
      },
      "geometry": {
        "type": "Point",
        "coordinates": [
          -74.2435270112364,
          0.01720543038665171
        ]
      }
    },
    {
      "type": "Feature",
      "properties": {
        "norad_id": 40875,
        "name": "EUTELSAT 8 WEST B",
        "group": "eutelsat",
        "lat": 0.0518771295717385,
        "lon": 32.7083987803149,
        "alt_km": 35798.3113179184,
        "timestamp": "2025-12-08T21:31:04.346607+00:00",
        "meta_object_name": "EUTELSAT 8 WEST B",
        "meta_object_id": "2015-039B",
        "meta_epoch": "2025-12-08T13:33:44.983872",
        "meta_mean_motion": 1.0027144,
        "meta_eccentricity": 0.00041398,
        "meta_inclination": 0.0644,
        "meta_ra_of_asc_node": 358.7291,
        "meta_arg_of_pericenter": 260.1205,
        "meta_mean_anomaly": 14.1718,
        "meta_ephemeris_type": 0,
        "meta_classification_type": "U",
        "meta_norad_cat_id": 40875,
        "meta_element_set_no": 999,
        "meta_rev_at_epoch": 3774,
        "meta_bstar": 0,
        "meta_mean_motion_dot": -6.3e-07,
        "meta_mean_motion_ddot": 0,
        "tle_line1": "1 40875U 15039B   25342.56510398 -.00000063  00000+0  00000+0 0  9993",
        "tle_line2": "2 40875   0.0644 358.7291 0004139 260.1205  14.1718  1.00271440 37740"
      },
      "geometry": {
        "type": "Point",
        "coordinates": [
          32.7083987803149,
          0.0518771295717385
        ]
      }
    },
    {
      "type": "Feature",
      "properties": {
        "norad_id": 41310,
        "name": "EUTELSAT 9B",
        "group": "eutelsat",
        "lat": 0.01613471397956317,
        "lon": 49.7043981784536,
        "alt_km": 35802.908494271236,
        "timestamp": "2025-12-08T21:31:04.346620+00:00",
        "meta_object_name": "EUTELSAT 9B",
        "meta_object_id": "2016-005A",
        "meta_epoch": "2025-12-08T08:30:36.516384",
        "meta_mean_motion": 1.00272374,
        "meta_eccentricity": 0.00049086,
        "meta_inclination": 0.034,
        "meta_ra_of_asc_node": 49.262,
        "meta_arg_of_pericenter": 215.4191,
        "meta_mean_anomaly": 309.3435,
        "meta_ephemeris_type": 0,
        "meta_classification_type": "U",
        "meta_norad_cat_id": 41310,
        "meta_element_set_no": 999,
        "meta_rev_at_epoch": 3620,
        "meta_bstar": 0,
        "meta_mean_motion_dot": 6.4e-07,
        "meta_mean_motion_ddot": 0,
        "tle_line1": "1 41310U 16005A   25342.35458931  .00000064  00000+0  00000+0 0  9993",
        "tle_line2": "2 41310   0.0340  49.2620 0004908 215.4191 309.3435  1.00272374 36209"
      },
      "geometry": {
        "type": "Point",
        "coordinates": [
          49.7043981784536,
          0.01613471397956317
        ]
      }
    },
    {
      "type": "Feature",
      "properties": {
        "norad_id": 41382,
        "name": "EUTELSAT 65 WEST A",
        "group": "eutelsat",
        "lat": -0.02601101058058167,
        "lon": -24.524115541868813,
        "alt_km": 35782.874293232206,
        "timestamp": "2025-12-08T21:31:04.346632+00:00",
        "meta_object_name": "EUTELSAT 65 WEST A",
        "meta_object_id": "2016-014A",
        "meta_epoch": "2025-12-08T12:41:22.901856",
        "meta_mean_motion": 1.00271818,
        "meta_eccentricity": 0.00026162,
        "meta_inclination": 0.0497,
        "meta_ra_of_asc_node": 1.9264,
        "meta_arg_of_pericenter": 260.5786,
        "meta_mean_anomaly": 300.161,
        "meta_ephemeris_type": 0,
        "meta_classification_type": "U",
        "meta_norad_cat_id": 41382,
        "meta_element_set_no": 999,
        "meta_rev_at_epoch": 3562,
        "meta_bstar": 0,
        "meta_mean_motion_dot": -2.74e-06,
        "meta_mean_motion_ddot": 0,
        "tle_line1": "1 41382U 16014A   25342.52873729 -.00000274  00000+0  00000+0 0  9991",
        "tle_line2": "2 41382   0.0497   1.9264 0002616 260.5786 300.1610  1.00271818 35626"
      },
      "geometry": {
        "type": "Point",
        "coordinates": [
          -24.524115541868813,
          -0.02601101058058167
        ]
      }
    },
    {
      "type": "Feature",
      "properties": {
        "norad_id": 41589,
        "name": "EUTELSAT 117 WEST B",
        "group": "eutelsat",
        "lat": 0.00958591137145119,
        "lon": -76.33816402895694,
        "alt_km": 35788.00393513931,
        "timestamp": "2025-12-08T21:31:04.346644+00:00",
        "meta_object_name": "EUTELSAT 117 WEST B",
        "meta_object_id": "2016-038B",
        "meta_epoch": "2025-12-08T13:15:20.452320",
        "meta_mean_motion": 1.00270251,
        "meta_eccentricity": 3.593e-05,
        "meta_inclination": 0.0079,
        "meta_ra_of_asc_node": 142.3088,
        "meta_arg_of_pericenter": 313.5453,
        "meta_mean_anomaly": 63.5421,
        "meta_ephemeris_type": 0,
        "meta_classification_type": "U",
        "meta_norad_cat_id": 41589,
        "meta_element_set_no": 999,
        "meta_rev_at_epoch": 3475,
        "meta_bstar": 0,
        "meta_mean_motion_dot": -9e-08,
        "meta_mean_motion_ddot": 0,
        "tle_line1": "1 41589U 16038B   25342.55232005 -.00000009  00000+0  00000+0 0  9991",
        "tle_line2": "2 41589   0.0079 142.3088 0000359 313.5453  63.5421  1.00270251 34750"
      },
      "geometry": {
        "type": "Point",
        "coordinates": [
          -76.33816402895694,
          0.00958591137145119
        ]
      }
    },
    {
      "type": "Feature",
      "properties": {
        "norad_id": 42741,
        "name": "EUTELSAT 172B",
        "group": "eutelsat",
        "lat": -0.003205343835263764,
        "lon": -147.33709658869057,
        "alt_km": 35786.775226100566,
        "timestamp": "2025-12-08T21:31:04.346655+00:00",
        "meta_object_name": "EUTELSAT 172B",
        "meta_object_id": "2017-029B",
        "meta_epoch": "2025-12-08T14:38:38.663808",
        "meta_mean_motion": 1.00269577,
        "meta_eccentricity": 2.309e-05,
        "meta_inclination": 0.0118,
        "meta_ra_of_asc_node": 90.8778,
        "meta_arg_of_pericenter": 217.0034,
        "meta_mean_anomaly": 161.4014,
        "meta_ephemeris_type": 0,
        "meta_classification_type": "U",
        "meta_norad_cat_id": 42741,
        "meta_element_set_no": 999,
        "meta_rev_at_epoch": 3182,
        "meta_bstar": 0,
        "meta_mean_motion_dot": -4e-08,
        "meta_mean_motion_ddot": 0,
        "tle_line1": "1 42741U 17029B   25342.61016972 -.00000004  00000+0  00000+0 0  9998",
        "tle_line2": "2 42741   0.0118  90.8778 0000230 217.0034 161.4014  1.00269577 31829"
      },
      "geometry": {
        "type": "Point",
        "coordinates": [
          -147.33709658869057,
          -0.003205343835263764
        ]
      }
    }
  ]
}